GSAT0101 (PRN E11)      
1 37846U 11060A   24150.95259777 -.00000075  00000+0  00000+0 0  9990
2 37846  57.1280   2.0256 0003804  40.9810 319.0900  1.70475785 78365
GSAT0102 (PRN E12)      
1 37847U 11060B   24146.48110541 -.00000068  00000+0  00000+0 0  9991
2 37847  57.1288   2.1468 0003884   5.8254 175.7220  1.70475367 78290
GSAT0103 (PRN E19)      
1 38857U 12055A   24147.47217447  .00000057  00000+0  00000+0 0  9998
2 38857  55.3979 122.2018 0005794 279.8741  80.0215  1.70473529 72193
GSAT0201 (PRN E18)      
1 40128U 14050A   24152.37865865 -.00000077  00000+0  00000+0 0  9990
2 40128  49.6779 303.7388 1611026 150.5795 219.5593  1.85519259 64469
GSAT0202 (PRN E14)      
1 40129U 14050B   24149.94206616 -.00000055  00000+0  00000+0 0  9999
2 40129  49.6969 302.9131 1609636 151.2858 218.6342  1.85519978 66585
GSAT0203 (PRN E26)      
1 40544U 15017A   24148.97211370 -.00000071  00000+0  00000+0 0  9997
2 40544  56.9235   2.0160 0001585 288.0222  72.0057  1.70475796 56414
GSAT0204 (PRN E22)      
1 40545U 15017B   24147.46652697 -.00000069  00000+0  00000+0 0  9999
2 40545  56.9294   2.0723 0001106 251.5082 108.5287  1.70475522 19431
GSAT0205 (PRN E24)      
1 40889U 15045A   24148.99449293  .00000013  00000+0  00000+0 0  9994
2 40889  55.2266 242.3284 0003824  39.3375 320.7437  1.70474050 54226
GSAT0206 (PRN E30)      
1 40890U 15045B   24151.56145873 -.00000004  00000+0  00000+0 0  9991
2 40890  55.2247 242.2531 0002333  54.4987 305.5666  1.70473893 54298
GSAT0209 (PRN E09)      
1 41174U 15079A   24149.97140179  .00000060  00000+0  00000+0 0  9991
2 41174  55.4177 121.8422 0005434 312.7126  47.2094  1.70474013 52589
GSAT0208 (PRN E08)      
1 41175U 15079B   24148.43138710  .00000057  00000+0  00000+0 0  9996
2 41175  55.4154 121.8822 0004760 310.3780  49.5431  1.70474052 52392
GSAT0211 (PRN E02)      
1 41549U 16030A   24150.31400464  .00000005  00000+0  00000+0 0  9990
2 41549  55.3734 242.2965 0002214 336.1909  23.8477  1.70474030 49901
GSAT0210 (PRN E01)      
1 41550U 16030B   24151.77843494 -.00000005  00000+0  00000+0 0  9998
2 41550  55.3716 242.2574 0002419 264.9939  95.0212  1.70473906 49928
GSAT0207 (PRN E07)      
1 41859U 16069A   24148.50528970  .00000057  00000+0  00000+0 0  9994
2 41859  55.0821 121.8889 0005738 300.3113  59.5948  1.70474031 46604
GSAT0212 (PRN E03)      
1 41860U 16069B   24151.29253194  .00000060  00000+0  00000+0 0  9993
2 41860  55.0807 121.8082 0004229 321.6448  38.2962  1.70474207 46904
GSAT0213 (PRN E04)      
1 41861U 16069C   24150.48762562  .00000060  00000+0  00000+0 0  9998
2 41861  55.0825 121.8370 0005728 285.2929  74.6132  1.70472858 46889
GSAT0214 (PRN E05)      
1 41862U 16069D   24148.28677568  .00000057  00000+0  00000+0 0  9991
2 41862  55.0802 121.8917 0004764 288.4374  71.4732  1.70474276 46843
GSAT0215 (PRN E21)      
1 43055U 17079A   24152.29600571 -.00000007  00000+0  00000+0 0  9991
2 43055  55.3490 242.0642 0001995 251.2113 108.8084  1.70474671 40251
GSAT0216 (PRN E25)      
1 43056U 17079B   24151.41455980 -.00000003  00000+0  00000+0 0  9993
2 43056  55.3496 242.0884 0003253 267.6415  92.3657  1.70474747 40258
GSAT0217 (PRN E27)      
1 43057U 17079C   24150.46186393  .00000004  00000+0  00000+0 0  9997
2 43057  55.3481 242.1133 0002576 287.4756  72.5448  1.70474757 40222
GSAT0218 (PRN E31)      
1 43058U 17079D   24151.26848636 -.00000002  00000+0  00000+0 0  9991
2 43058  55.3481 242.0887 0003449 264.6015  95.4042  1.70474673 40268
GSAT0221 (PRN E15)      
1 43564U 18060A   24151.75576527 -.00000077  00000+0  00000+0 0  9997
2 43564  57.3037   1.9363 0002595 313.0640  46.9564  1.70475576 36420
GSAT0222 (PRN E33)      
1 43565U 18060B   24147.86815303 -.00000068  00000+0  00000+0 0  9993
2 43565  57.3070   2.0429 0001506 258.5794 101.4519  1.70475362 36405
GSAT0219 (PRN E36)      
1 43566U 18060C   24152.19617257 -.00000078  00000+0  00000+0 0  9995
2 43566  57.3062   1.9281 0002193 336.1558  23.8761  1.70475580 36458
GSAT0220 (PRN E13)      
1 43567U 18060D   24150.07043799 -.00000072  00000+0  00000+0 0  9999
2 43567  57.3059   1.9858 0002018 337.7157  22.3190  1.70475320 36400
GSAT0223 (PRN E34)      
1 49809U 21116A   24151.39872477 -.00000076  00000+0  00000+0 0  9993
2 49809  57.2971   1.8444 0001385 127.3068  58.3459  1.70475417 15431
GSAT0224 (PRN E10)      
1 49810U 21116B   24151.26162963 -.00000075  00000+0  00000+0 0  9992
2 49810  57.2983   1.8464 0001332 106.2364 107.7855  1.70475435 15456
GSAT0225 (PRN E29)      
1 59598U 24079A   24150.08822537  .00000058  00000+0  00000+0 0  9996
2 59598  54.6812 122.0523 0021719 254.4178 103.2149  1.72327282   532
GSAT0227 (PRN E06)      
1 59600U 24079C   24151.52013725  .00000059  00000+0  00000+0 0  9992
2 59600  54.6902 121.9807 0006907 238.8567 121.0473  1.70568024   615
